{"type": "FeatureCollection", "features": [ {"type": "Feature", "properties": {"norad_id": 29940, "name": "FENGYUN 1C DEB", "group": "fengyun-1c-debris", "lat": 39.11487048689633, "lon": -162.20320446273905, "alt_km": 818.697032427589, "timestamp": "2025-12-27T10:28:59.067060+00:00", "meta": {"OBJECT_NAME": "FENGYUN 1C DEB", "OBJECT_ID": "1999-025JN", "EPOCH": "2025-12-26T14:05:37.681152", "MEAN_MOTION": 14.18855919, "ECCENTRICITY": 0.0074557, "INCLINATION": 98.6213, "RA_OF_ASC_NODE": 9.8847, "ARG_OF_PERICENTER": 60.3138, "MEAN_ANOMALY": 62.1346, "EPHEMERIS_TYPE": 0, "CLASSIFICATION_TYPE": "U", "NORAD_CAT_ID": 29940, "ELEMENT_SET_NO": 999, "REV_AT_EPOCH": 97684, "BSTAR": 0.00062916, "MEAN_MOTION_DOT": 1.304e-05, "MEAN_MOTION_DDOT": 0}, "tle": {"line1": "1 29940U 99025JN  25360.58724168  .00001304  00000+0  62916-3 0  9990", "line2": "2 29940  98.6213   9.8847 0074557  60.3138  62.1346 14.18855919976847"}}, "geometry": {"type": "Point", "coordinates": [-162.20320446273905, 39.11487048689633]}}, {"type": "Feature", "properties": {"norad_id": 29942, "name": "FENGYUN 1C DEB", "group": "fengyun-1c-debris", "lat": -71.58556225355898, "lon": -139.98855530762808, "alt_km": 764.4354987696934, "timestamp": "2025-12-27T10:28:59.067070+00:00", "meta": {"OBJECT_NAME": "FENGYUN 1C DEB", "OBJECT_ID": "1999-025JQ", "EPOCH": "2025-12-27T04:15:48.635136", "MEAN_MOTION": 14.30464925, "ECCENTRICITY": 0.0049383, "INCLINATION": 98.6356, "RA_OF_ASC_NODE": 66.9126, "ARG_OF_PERICENTER": 233.0964, "MEAN_ANOMALY": 126.5688, "EPHEMERIS_TYPE": 0, "CLASSIFICATION_TYPE": "U", "NORAD_CAT_ID": 29942, "ELEMENT_SET_NO": 999, "REV_AT_EPOCH": 98075, "BSTAR": 0.00079044, "MEAN_MOTION_DOT": 2.041e-05, "MEAN_MOTION_DDOT": 0}, "tle": {"line1": "1 29942U 99025JQ  25361.17764624  .00002041  00000+0  79044-3 0  9998", "line2": "2 29942  98.6356  66.9126 0049383 233.0964 126.5688 14.30464925980752"}}, "geometry": {"type": "Point", "coordinates": [-139.98855530762808, -71.58556225355898]}}, {"type": "Feature", "properties": {"norad_id": 29943, "name": "FENGYUN 1C DEB", "group": "fengyun-1c-debris", "lat": -5.626890216931044, "lon": -172.12329877886276, "alt_km": 838.4103812054054, "timestamp": "2025-12-27T10:28:59.067080+00:00", "meta": {"OBJECT_NAME": "FENGYUN 1C DEB", "OBJECT_ID": "1999-025JR", "EPOCH": "2025-12-27T01:25:34.534272", "MEAN_MOTION": 14.09673809, "ECCENTRICITY": 0.0035474, "INCLINATION": 98.7268, "RA_OF_ASC_NODE": 8.378, "ARG_OF_PERICENTER": 185.993, "MEAN_ANOMALY": 245.5725, "EPHEMERIS_TYPE": 0, "CLASSIFICATION_TYPE": "U", "NORAD_CAT_ID": 29943, "ELEMENT_SET_NO": 999, "REV_AT_EPOCH": 97508, "BSTAR": 5.6178e-05, "MEAN_MOTION_DOT": 5.6e-07, "MEAN_MOTION_DDOT": 0}, "tle": {"line1": "1 29943U 99025JR  25361.05942748  .00000056  00000+0  56178-4 0  9999", "line2": "2 29943  98.7268   8.3780 0035474 185.9930 245.5725 14.09673809975089"}}, "geometry": {"type": "Point", "coordinates": [-172.12329877886276, -5.626890216931044]}}, {"type": "Feature", "properties": {"norad_id": 29944, "name": "FENGYUN 1C DEB", "group": "fengyun-1c-debris", "lat": 26.474688981953513, "lon": 122.02234826047406, "alt_km": 504.7964543778544, "timestamp": "2025-12-27T10:28:59.067090+00:00", "meta": {"OBJECT_NAME": "FENGYUN 1C DEB", "OBJECT_ID": "1999-025JS", "EPOCH": "2025-12-26T19:15:52.011648", "MEAN_MOTION": 14.87731147, "ECCENTRICITY": 0.01665408, "INCLINATION": 99.0047, "RA_OF_ASC_NODE": 296.7733, "ARG_OF_PERICENTER": 187.0202, "MEAN_ANOMALY": 172.8678, "EPHEMERIS_TYPE": 0, "CLASSIFICATION_TYPE": "U", "NORAD_CAT_ID": 29944, "ELEMENT_SET_NO": 999, "REV_AT_EPOCH": 663, "BSTAR": 0.00062820402, "MEAN_MOTION_DOT": 7.327e-05, "MEAN_MOTION_DDOT": 0}, "tle": {"line1": "1 29944U 99025JS  25360.80268532  .00007327  00000+0  62820-3 0  9992", "line2": "2 29944  99.0047 296.7733 0166540 187.0202 172.8678 14.87731147  6635"}}, "geometry": {"type": "Point", "coordinates": [122.02234826047406, 26.474688981953513]}}, {"type": "Feature", "properties": {"norad_id": 29945, "name": "FENGYUN 1C DEB", "group": "fengyun-1c-debris", "lat": 3.7969015394289856, "lon": -154.7751437024996, "alt_km": 894.8374795270593, "timestamp": "2025-12-27T10:28:59.067100+00:00", "meta": {"OBJECT_NAME": "FENGYUN 1C DEB", "OBJECT_ID": "1999-025JT", "EPOCH": "2025-12-27T01:21:47.501856", "MEAN_MOTION": 14.05579763, "ECCENTRICITY": 0.0030266, "INCLINATION": 98.7911, "RA_OF_ASC_NODE": 24.2679, "ARG_OF_PERICENTER": 321.9015, "MEAN_ANOMALY": 92.5996, "EPHEMERIS_TYPE": 0, "CLASSIFICATION_TYPE": "U", "NORAD_CAT_ID": 29945, "ELEMENT_SET_NO": 999, "REV_AT_EPOCH": 97179, "BSTAR": 6.4185e-05, "MEAN_MOTION_DOT": 6.2e-07, "MEAN_MOTION_DDOT": 0}, "tle": {"line1": "1 29945U 99025JT  25361.05679979  .00000062  00000+0  64185-4 0  9998", "line2": "2 29945  98.7911  24.2679 0030266 321.9015  92.5996 14.05579763971794"}}, "geometry": {"type": "Point", "coordinates": [-154.7751437024996, 3.7969015394289856]}}, {"type": "Feature", "properties": {"norad_id": 29946, "name": "FENGYUN 1C DEB", "group": "fengyun-1c-debris", "lat": -19.61223527047293, "lon": -3.5607639868739227, "alt_km": 824.7319393699572, "timestamp": "2025-12-27T10:28:59.067110+00:00", "meta": {"OBJECT_NAME": "FENGYUN 1C DEB", "OBJECT_ID": "1999-025JU", "EPOCH": "2025-12-26T22:53:50.332128", "MEAN_MOTION": 14.08267925, "ECCENTRICITY": 0.0080097, "INCLINATION": 98.7809, "RA_OF_ASC_NODE": 352.8123, "ARG_OF_PERICENTER": 303.1916, "MEAN_ANOMALY": 110.4827, "EPHEMERIS_TYPE": 0, "CLASSIFICATION_TYPE": "U", "NORAD_CAT_ID": 29946, "ELEMENT_SET_NO": 999, "REV_AT_EPOCH": 97247, "BSTAR": 0.0002373, "MEAN_MOTION_DOT": 3.74e-06, "MEAN_MOTION_DDOT": 0}, "tle": {"line1": "1 29946U 99025JU  25360.95405477  .00000374  00000+0  23730-3 0  9993", "line2": "2 29946  98.7809 352.8123 0080097 303.1916 110.4827 14.08267925972470"}}, "geometry": {"type": "Point", "coordinates": [-3.5607639868739227, -19.61223527047293]}}, {"type": "Feature", "properties": {"norad_id": 29947, "name": "FENGYUN 1C DEB", "group": "fengyun-1c-debris", "lat": 44.71991300792827, "lon": 22.70006897244598, "alt_km": 854.7263851184598, "timestamp": "2025-12-27T10:28:59.067121+00:00", "meta": {"OBJECT_NAME": "FENGYUN 1C DEB", "OBJECT_ID": "1999-025JV", "EPOCH": "2025-12-27T01:58:11.305920", "MEAN_MOTION": 14.03084052, "ECCENTRICITY": 0.0041121, "INCLINATION": 98.8366, "RA_OF_ASC_NODE": 31.2172, "ARG_OF_PERICENTER": 81.3765, "MEAN_ANOMALY": 333.6404, "EPHEMERIS_TYPE": 0, "CLASSIFICATION_TYPE": "U", "NORAD_CAT_ID": 29947, "ELEMENT_SET_NO": 999, "REV_AT_EPOCH": 96951, "BSTAR": 0.00017902, "MEAN_MOTION_DOT": 2.38e-06, "MEAN_MOTION_DDOT": 0}, "tle": {"line1": "1 29947U 99025JV  25361.08207530  .00000238  00000+0  17902-3 0  9992", "line2": "2 29947  98.8366  31.2172 0041121  81.3765 333.6404 14.03084052969518"}}, "geometry": {"type": "Point", "coordinates": [22.70006897244598, 44.71991300792827]}}, {"type": "Feature", "properties": {"norad_id": 29948, "name": "FENGYUN 1C DEB", "group": "fengyun-1c-debris", "lat": 73.49771263039894, "lon": -44.38550435649937, "alt_km": 891.7315698598059, "timestamp": "2025-12-27T10:28:59.067185+00:00", "meta": {"OBJECT_NAME": "FENGYUN 1C DEB", "OBJECT_ID": "1999-025JW", "EPOCH": "2025-12-26T22:18:11.023200", "MEAN_MOTION": 14.06197977, "ECCENTRICITY": 0.0084259, "INCLINATION": 98.8252, "RA_OF_ASC_NODE": 346.7475, "ARG_OF_PERICENTER": 193.4733, "MEAN_ANOMALY": 195.7234, "EPHEMERIS_TYPE": 0, "CLASSIFICATION_TYPE": "U", "NORAD_CAT_ID": 29948, "ELEMENT_SET_NO": 999, "REV_AT_EPOCH": 97176, "BSTAR": 3.0911e-05, "MEAN_MOTION_DOT": 9e-08, "MEAN_MOTION_DDOT": 0}, "tle": {"line1": "1 29948U 99025JW  25360.92929425  .00000009  00000+0  30911-4 0  9991", "line2": "2 29948  98.8252 346.7475 0084259 193.4733 195.7234 14.06197977971764"}}, "geometry": {"type": "Point", "coordinates": [-44.38550435649937, 73.49771263039894]}}, {"type": "Feature", "properties": {"norad_id": 29949, "name": "FENGYUN 1C DEB", "group": "fengyun-1c-debris", "lat": 62.07456497080594, "lon": -0.2541706886963504, "alt_km": 879.9643514604768, "timestamp": "2025-12-27T10:28:59.067199+00:00", "meta": {"OBJECT_NAME": "FENGYUN 1C DEB", "OBJECT_ID": "1999-025JX", "EPOCH": "2025-12-27T00:12:04.006944", "MEAN_MOTION": 14.06828363, "ECCENTRICITY": 0.0023065, "INCLINATION": 98.7616, "RA_OF_ASC_NODE": 16.2461, "ARG_OF_PERICENTER": 263.6774, "MEAN_ANOMALY": 151.1269, "EPHEMERIS_TYPE": 0, "CLASSIFICATION_TYPE": "U", "NORAD_CAT_ID": 29949, "ELEMENT_SET_NO": 999, "REV_AT_EPOCH": 97308, "BSTAR": 2.6442e-05, "MEAN_MOTION_DOT": 1e-08, "MEAN_MOTION_DDOT": 0}, "tle": {"line1": "1 29949U 99025JX  25361.00837971  .00000001  00000+0  26442-4 0  9992", "line2": "2 29949  98.7616  16.2461 0023065 263.6774 151.1269 14.06828363973086"}}, "geometry": {"type": "Point", "coordinates": [-0.2541706886963504, 62.07456497080594]}}, {"type": "Feature", "properties": {"norad_id": 29950, "name": "FENGYUN 1C DEB", "group": "fengyun-1c-debris", "lat": 79.40308429506808, "lon": -23.20307074922923, "alt_km": 861.0936328399184, "timestamp": "2025-12-27T10:28:59.067210+00:00", "meta": {"OBJECT_NAME": "FENGYUN 1C DEB", "OBJECT_ID": "1999-025JY", "EPOCH": "2025-12-27T01:42:16.554816", "MEAN_MOTION": 14.1034065, "ECCENTRICITY": 0.003291, "INCLINATION": 98.7395, "RA_OF_ASC_NODE": 31.7468, "ARG_OF_PERICENTER": 200.7677, "MEAN_ANOMALY": 187.5147, "EPHEMERIS_TYPE": 0, "CLASSIFICATION_TYPE": "U", "NORAD_CAT_ID": 29950, "ELEMENT_SET_NO": 999, "REV_AT_EPOCH": 97493, "BSTAR": 0.00010198, "MEAN_MOTION_DOT": 1.39e-06, "MEAN_MOTION_DDOT": 0}, "tle": {"line1": "1 29950U 99025JY  25361.07102494  .00000139  00000+0  10198-3 0  9998", "line2": "2 29950  98.7395  31.7468 0032910 200.7677 187.5147 14.10340650974930"}}, "geometry": {"type": "Point", "coordinates": [-23.20307074922923, 79.40308429506808]}}]}